0 FENGYUN 1C DEB
1 30522U 99025AJL 13282.37319197  .00004225  00000-0  13367-2 0  8201
2 30522 099.4157 161.0995 0091634 091.6596 332.3514 14.38355873351725
0 FENGYUN 1C DEB
1 30522U 99025AJL 13283.91606767  .00004307  00000-0  13619-2 0  8216
2 30522 099.4160 162.7905 0091690 087.2184 041.4652 14.38363188351947
0 FENGYUN 1C DEB
1 30522U 99025AJL 13285.17218023  .00003737  00000-0  11838-2 0  8228
2 30522 099.4160 164.1669 0091694 083.5915 065.7502 14.38372512352120
0 FENGYUN 1C DEB
1 30522U 99025AJL 13286.33679257  .00003454  00000-0  10950-2 0  8238
2 30522 099.4161 165.4432 0091816 080.2360 336.2660 14.38379869352298
0 FENGYUN 1C DEB
1 30522U 99025AJL 13287.65977809  .00005222  00000-0  16464-2 0  8240
2 30522 099.4162 166.8931 0091900 076.4344 346.8880 14.38388378352488
0 FENGYUN 1C DEB
1 30522U 99025AJL 13289.20191865  .00005574  00000-0  17554-2 0  8255
2 30522 099.4158 168.5834 0091946 072.0203 052.3883 14.38407467352708
0 FENGYUN 1C DEB
1 30522U 99025AJL 13290.52198155  .00005936  00000-0  18675-2 0  8269
2 30522 099.4154 170.0303 0092053 068.2407 047.9968 14.38416108352892
0 FENGYUN 1C DEB
1 30522U 99025AJL 13292.19361521  .00004367  00000-0  13783-2 0  8276
2 30522 099.4149 171.8626 0092077 063.4490 064.2025 14.38432056353132
0 FENGYUN 1C DEB
1 30522U 99025AJL 13293.51356836  .00005403  00000-0  17007-2 0  8282
2 30522 099.4145 173.3095 0092124 059.6648 059.3703 14.38440912353329
0 FENGYUN 1C DEB
1 30522U 99025AJL 13294.61550696  .00006006  00000-0  18879-2 0  8293
2 30522 099.4143 174.5174 0092172 056.5075 005.6170 14.38450696353480
0 FENGYUN 1C DEB
1 30522U 99025AJL 13295.65742339  .00005899  00000-0  18542-2 0  8303
2 30522 099.4142 175.6595 0092190 053.5247 001.0800 14.38459291353633
